GLOBALSTAR M024         
1 25883U 99043A   24216.90947299  .00000005  00000+0  24888-2 0  9991
2 25883  52.0050  16.5071 0000756 332.0242 144.5004 11.10160540 79625
GLOBALSTAR M027         
1 25884U 99043B   24216.88756520  .00000000  00000+0  23958-2 0  9996
2 25884  52.0215  85.5493 0020693 197.7035 162.3038 11.04369391106186
GLOBALSTAR M054         
1 25885U 99043C   24216.87522591 -.00000013  00000+0  14837-2 0  9996
2 25885  52.0118 266.1299 0004812 355.5791 175.0857 11.39211404 82887
GLOBALSTAR M053         
1 25886U 99043D   24216.89954358 -.00000076  00000+0 -20256-3 0  9992
2 25886  51.9946 195.5594 0003740 267.9650 103.8679 11.27657512 83790
GLOBALSTAR M033         
1 25909U 99049C   24216.86786465 -.00000096  00000+0 -46017-4 0  9999
2 25909  51.9900 161.6251 0012915 335.1261  24.8962 12.20274145497001
GLOBALSTAR M055         
1 25910U 99049D   24216.93856205 -.00000088  00000+0  56639-4 0  9990
2 25910  51.9996 187.6116 0006828 193.0200 167.0476 12.29405614129262
